NORAD_CAT_ID,OBJECT_NAME,OBJECT_TYPE,EPOCH,MEAN_MOTION,ECCENTRICITY,INCLINATION,RA_OF_ASC_NODE,ARG_OF_PERICENTER,MEAN_ANOMALY,BSTAR,MEAN_MOTION_DOT,MEAN_MOTION_DDOT,TLE_LINE0,TLE_LINE1,TLE_LINE2,SEMIMAJOR_AXIS,PERIOD,APOGEE,PERIGEE,DECAYED
51990.0,STARLINK-3657,PAYLOAD,2023-09-11 01:51:33,15.08836117,0.0001308,53.2179,147.0167,94.1815,265.9327,-3.7325e-05,-8.82e-06,0.0,0 STARLINK-3657,1 51990U 22025AL  23254.07746780 -.00000882  00000-0 -37325-4 0  9994,2 51990  53.2179 147.0167 0001308  94.1815 265.9327 15.08836117 84960,6917.892,95.438,540.662,538.852,0.0
51990.0,STARLINK-3657,PAYLOAD,2023-09-11 09:48:28,15.08837571,0.0001351,53.2181,145.5275,85.4849,274.6298,7.9688e-06,-1.61e-06,0.0,0 STARLINK-3657,1 51990U 22025AL  23254.40866600 -.00000161  00000-0  79688-5 0  9993,2 51990  53.2181 145.5275 0001351  85.4849 274.6298 15.08837571 83917,6917.888,95.438,540.687,538.818,0.0
51990.0,STARLINK-3657,PAYLOAD,2023-09-12 01:42:19,15.08841592,0.0001349,53.2182,142.5538,95.9563,264.1583,5.0607e-05,5.18e-06,0.0,0 STARLINK-3657,1 51990U 22025AL  23255.07106434  .00000518  00000-0  50607-4 0  9993,2 51990  53.2182 142.5538 0001349  95.9563 264.1583 15.08841592 85116,6917.876,95.437,540.674,538.807,0.0
51990.0,STARLINK-3657,PAYLOAD,2023-09-12 03:17:42,15.08843862,0.0001427,53.218,142.2558,97.3805,262.7349,0.00011928,1.611e-05,0.0,0 STARLINK-3657,1 51990U 22025AL  23255.13730089  .00001611  00000-0  11928-3 0  9996,2 51990  53.2180 142.2558 0001427  97.3805 262.7349 15.08843862 84020,6917.869,95.437,540.721,538.746,0.0
51990.0,STARLINK-3657,PAYLOAD,2023-09-12 20:46:57,15.08840487,0.0001329,53.2175,138.9841,84.1909,275.9235,0.00010856,1.44e-05,0.0,0 STARLINK-3657,1 51990U 22025AL  23255.86594490  .00001440  00000-0  10856-3 0  9999,2 51990  53.2175 138.9841 0001329  84.1909 275.9235 15.08840487 84133,6917.879,95.438,540.663,538.825,0.0
51990.0,STARLINK-3657,PAYLOAD,2023-09-12 23:57:43,15.08845846,0.0001465,53.2171,138.3905,81.6862,278.4296,0.00014384,2.002e-05,0.0,0 STARLINK-3657,1 51990U 22025AL  23255.99842121  .00002002  00000-0  14384-3 0  9995,2 51990  53.2171 138.3905 0001465  81.6862 278.4296 15.08845846 84156,6917.863,95.437,540.741,538.714,0.0
51990.0,STARLINK-3657,PAYLOAD,2023-09-13 22:13:07,15.08847605,0.0001548,53.2166,134.2281,90.3436,269.7734,5.6094e-05,6.05e-06,0.0,0 STARLINK-3657,1 51990U 22025AL  23256.92577908  .00000605  00000-0  56094-4 0  9999,2 51990  53.2166 134.2281 0001548  90.3436 269.7734 15.08847605 84298,6917.857,95.437,540.793,538.651,0.0
51990.0,STARLINK-3657,PAYLOAD,2023-09-14 01:23:53,15.08851214,0.0001445,53.2175,133.6314,92.6995,267.4163,7.7437e-05,9.45e-06,0.0,0 STARLINK-3657,1 51990U 22025AL  23257.05825476  .00000945  00000-0  77437-4 0  9991,2 51990  53.2175 133.6314 0001445  92.6995 267.4163 15.08851214 85416,6917.846,95.437,540.711,538.711,0.0
51990.0,STARLINK-3657,PAYLOAD,2023-09-14 15:42:23,15.08830871,0.0001599,53.2182,130.9588,68.1309,291.9853,-3.3613e-05,-8.23e-06,0.0,0 STARLINK-3657,1 51990U 22025AL  23257.65443401 -.00000823  00000-0 -33613-4 0  9996,2 51990  53.2182 130.9588 0001599  68.1309 291.9853 15.08830871 85508,6917.908,95.438,540.879,538.667,0.0
51990.0,STARLINK-3657,PAYLOAD,2023-09-14 20:28:32,15.08835153,0.0001362,53.2168,130.0666,87.5671,272.5477,-0.00010674,-1.986e-05,0.0,0 STARLINK-3657,1 51990U 22025AL  23257.85315204 -.00001986  00000-0 -10674-3 0  9999,2 51990  53.2168 130.0666 0001362  87.5671 272.5477 15.08835153 84431,6917.895,95.438,540.702,538.818,0.0
51990.0,STARLINK-3657,PAYLOAD,2023-09-15 01:14:41,15.08836058,0.000141,53.2168,129.1737,89.3189,270.7965,-9.282e-05,-1.765e-05,0.0,0 STARLINK-3657,1 51990U 22025AL  23258.05187125 -.00001765  00000-0 -92820-4 0  9990,2 51990  53.2168 129.1737 0001410  89.3189 270.7965 15.08836058 84467,6917.892,95.438,540.733,538.782,0.0
51990.0,STARLINK-3657,PAYLOAD,2023-09-16 01:05:27,15.08846627,0.0001425,53.2178,124.7117,93.1724,266.9431,5.581e-05,6.01e-06,0.0,0 STARLINK-3657,1 51990U 22025AL  23259.04546058  .00000601  00000-0  55810-4 0  9998,2 51990  53.2178 124.7117 0001425  93.1724 266.9431 15.08846627 85712,6917.86,95.437,540.711,538.739,0.0
51990.0,STARLINK-3657,PAYLOAD,2023-09-16 15:23:56,15.08833421,0.0001562,53.2176,122.035,96.7234,263.3936,9.8513e-05,1.28e-05,0.0,0 STARLINK-3657,1 51990U 22025AL  23259.64162959  .00001280  00000-0  98513-4 0  9999,2 51990  53.2176 122.0350 0001562  96.7234 263.3936 15.08833421 85806,6917.9,95.438,540.846,538.685,0.0
51990.0,STARLINK-3657,PAYLOAD,2023-09-17 00:56:15,15.08836053,0.0001586,53.2178,120.25,99.43,260.6871,9.4349e-05,1.214e-05,0.0,0 STARLINK-3657,1 51990U 22025AL  23260.03906910  .00001214  00000-0  94349-4 0  9997,2 51990  53.2178 120.2500 0001586  99.4300 260.6871 15.08836053 84761,6917.892,95.438,540.855,538.66,0.0
51990.0,STARLINK-3657,PAYLOAD,2023-09-17 18:25:29,15.08842761,0.0001577,53.2178,116.979,104.8702,255.2464,3.0756e-05,2.02e-06,0.0,0 STARLINK-3657,1 51990U 22025AL  23260.76770750  .00000202  00000-0  30756-4 0  9996,2 51990  53.2178 116.9790 0001577 104.8702 255.2464 15.08842761 85976,6917.872,95.437,540.828,538.646,0.0
51990.0,STARLINK-3657,PAYLOAD,2023-09-18 05:33:11,15.08847003,0.0001371,53.2172,114.9,87.0228,273.0921,3.6464e-05,2.93e-06,0.0,0 STARLINK-3657,1 51990U 22025AL  23261.23138448  .00000293  00000-0  36464-4 0  9993,2 51990  53.2172 114.9000 0001371  87.0228 273.0921 15.08847003 84945,6917.859,95.437,540.672,538.776,0.0
51990.0,STARLINK-3657,PAYLOAD,2023-09-18 21:27:03,15.08837028,0.0001381,53.2175,111.9291,94.696,265.419,1.58e-05,-3.6e-07,0.0,0 STARLINK-3657,1 51990U 22025AL  23261.89379319 -.00000036  00000-0  15800-4 0  9996,2 51990  53.2175 111.9291 0001381  94.6960 265.4190 15.08837028 85046,6917.889,95.438,540.71,538.799,0.0
51990.0,STARLINK-3657,PAYLOAD,2023-09-19 00:37:50,15.08838023,0.0001584,53.2183,111.3349,99.5498,260.5673,3.5999e-05,2.85e-06,0.0,0 STARLINK-3657,1 51990U 22025AL  23262.02627468  .00000285  00000-0  35999-4 0  9999,2 51990  53.2183 111.3349 0001584  99.5498 260.5673 15.08838023 86160,6917.886,95.438,540.847,538.656,0.0
51990.0,STARLINK-3657,PAYLOAD,2023-09-19 18:07:03,15.08842186,0.0002296,53.2187,108.0633,129.7194,230.4001,0.00022969,3.369e-05,0.0,0 STARLINK-3657,1 51990U 22025AL  23262.75490092  .00003369  00000-0  22969-3 0  9998,2 51990  53.2187 108.0633 0002296 129.7194 230.4001 15.08842186 86271,6917.874,95.437,541.327,538.15,0.0
51990.0,STARLINK-3657,PAYLOAD,2023-09-20 00:28:35,15.08857726,0.0001323,53.2161,106.8709,87.3377,272.7766,0.0002201,3.218e-05,0.0,0 STARLINK-3657,1 51990U 22025AL  23263.01985624  .00003218  00000-0  22010-3 0  9998,2 51990  53.2161 106.8709 0001323  87.3377 272.7766 15.08857726 86313,6917.826,95.436,540.606,538.776,0.0
51990.0,STARLINK-3657,PAYLOAD,2023-09-20 19:33:15,15.08823042,0.0001551,53.2165,103.3026,89.3081,270.8089,-0.00017165,-3.017e-05,0.0,0 STARLINK-3657,1 51990U 22025AL  23263.81476103 -.00003017  00000-0 -17165-3 0  9997,2 51990  53.2165 103.3026 0001551  89.3081 270.8089 15.08823042 86432,6917.932,95.439,540.87,538.724,0.0
51990.0,STARLINK-3657,PAYLOAD,2023-09-20 21:08:38,15.08821802,0.0001546,53.2162,103.0054,88.2692,271.8477,-0.0002326,-3.986e-05,0.0,0 STARLINK-3657,1 51990U 22025AL  23263.88099945 -.00003986  00000-0 -23260-3 0  9997,2 51990  53.2162 103.0054 0001546  88.2692 271.8477 15.08821802 85340,6917.936,95.439,540.871,538.732,0.0
51990.0,STARLINK-3657,PAYLOAD,2023-09-21 13:02:30,15.08827483,0.0001565,53.2165,100.0301,105.3793,254.7372,7.5938e-05,9.2e-06,0.0,0 STARLINK-3657,1 51990U 22025AL  23264.54340475  .00000920  00000-0  75938-4 0  9991,2 51990  53.2165 100.0301 0001565 105.3793 254.7372 15.08827483 85445,6917.919,95.438,540.866,538.701,0.0
51990.0,STARLINK-3657,PAYLOAD,2023-09-21 17:48:39,15.08835374,0.0001548,53.2165,99.1404,87.8819,272.235,0.00018134,2.599e-05,0.0,0 STARLINK-3657,1 51990U 22025AL  23264.74212400  .00002599  00000-0  18134-3 0  9997,2 51990  53.2165  99.1404 0001548  87.8819 272.2350 15.08835374 86575,6917.895,95.438,540.83,538.689,0.0
51990.0,STARLINK-3657,PAYLOAD,2023-09-22 12:53:17,15.08855352,0.0001594,53.2166,95.5713,89.8154,270.3021,0.00078573,0.00012244,0.0,0 STARLINK-3657,1 51990U 22025AL  23265.53700379  .00012244  00000-0  78573-3 0  9993,2 51990  53.2166  95.5713 0001594  89.8154 270.3021 15.08855352 85597,6917.833,95.437,540.801,538.596,0.0
51990.0,STARLINK-3657,PAYLOAD,2023-09-22 17:39:26,15.08866033,0.0001597,53.2166,94.6794,88.584,271.5335,0.00096771,0.00015158,0.0,0 STARLINK-3657,1 51990U 22025AL  23265.73572006  .00015158  00000-0  96771-3 0  9996,2 51990  53.2166  94.6794 0001597  88.5840 271.5335 15.08866033 86722,6917.801,95.436,540.771,538.561,0.0
51990.0,STARLINK-3657,PAYLOAD,2023-09-22 19:14:49,15.08868671,0.0001586,53.2167,94.382,88.4614,271.656,0.0010113,0.00015856,0.0,0 STARLINK-3657,1 51990U 22025AL  23265.80195882  .00015856  00000-0  10113-2 0  9997,2 51990  53.2167  94.3820 0001586  88.4614 271.6560 15.08868671 85636,6917.793,95.436,540.755,538.561,0.0
51990.0,STARLINK-3657,PAYLOAD,2023-09-23 12:44:03,15.08860738,0.0001665,53.2169,91.1109,84.9814,275.1369,0.00053243,8.201e-05,0.0,0 STARLINK-3657,1 51990U 22025AL  23266.53059489  .00008201  00000-0  53243-3 0  9998,2 51990  53.2169  91.1109 0001665  84.9814 275.1369 15.08860738 86840,6917.817,95.436,540.834,538.53,0.0
51990.0,STARLINK-3657,PAYLOAD,2023-09-23 19:05:35,15.0885321,0.0001673,53.2148,89.9198,91.805,268.3134,0.000154,2.165e-05,0.0,0 STARLINK-3657,1 51990U 22025AL  23266.79555315  .00002165  00000-0  15400-3 0  9991,2 51990  53.2148  89.9198 0001673  91.8050 268.3134 15.08853210 86883,6917.84,95.437,540.862,538.548,0.0
51990.0,STARLINK-3657,PAYLOAD,2023-09-24 10:59:27,15.08848939,0.0001435,53.2172,86.9499,92.3272,267.7885,9.2636e-05,1.187e-05,0.0,0 STARLINK-3657,1 51990U 22025AL  23267.45795171  .00001187  00000-0  92636-4 0  9991,2 51990  53.2172  86.9499 0001435  92.3272 267.7885 15.08848939 86988,6917.853,95.437,540.711,538.725,0.0
